[{"OBJECT_NAME":"HULIANWANG DIGUI-85","OBJECT_ID":"2025-220D","EPOCH":"2026-03-09T22:43:38.405856","MEAN_MOTION":13.24422263,"ECCENTRICITY":0.00022903,"INCLINATION":86.4919,"RA_OF_ASC_NODE":77.3934,"ARG_OF_PERICENTER":97.2668,"MEAN_ANOMALY":262.8726,"EPHEMERIS_TYPE":0,"CLASSIFICATION_TYPE":"U","NORAD_CAT_ID":65820,"ELEMENT_SET_NO":999,"REV_AT_EPOCH":2178,"BSTAR":6.0262319e-5,"MEAN_MOTION_DOT":4.1e-7,"MEAN_MOTION_DDOT":0},{"OBJECT_NAME":"DELTA 1 DEB","OBJECT_ID":"1975-052AM","EPOCH":"2026-03-09T10:58:33.728448","MEAN_MOTION":13.06869179,"ECCENTRICITY":0.02349694,"INCLINATION":99.643,"RA_OF_ASC_NODE":247.3191,"ARG_OF_PERICENTER":69.8694,"MEAN_ANOMALY":346.4926,"EPHEMERIS_TYPE":0,"CLASSIFICATION_TYPE":"U","NORAD_CAT_ID":21319,"ELEMENT_SET_NO":999,"REV_AT_EPOCH":65718,"BSTAR":-0.00017834836,"MEAN_MOTION_DOT":-1.04e-6,"MEAN_MOTION_DDOT":0}]
